{
  "type": "FeatureCollection",
  "features": [
    {
      "type": "Feature",
      "properties": {
        "norad_id": 32326,
        "name": "FENGYUN 1C DEB",
        "group": "fengyun-1c-debris",
        "lat": 3.3961405094268957,
        "lon": 89.2941356359612,
        "alt_km": 729.0004265716716,
        "timestamp": "2025-12-04T10:51:50.391639+00:00",
        "meta_object_name": "FENGYUN 1C DEB",
        "meta_object_id": "1999-025CXT",
        "meta_epoch": "2025-11-30T02:32:37.979232",
        "meta_mean_motion": 13.69261307,
        "meta_eccentricity": 0.03856265,
        "meta_inclination": 98.486,
        "meta_ra_of_asc_node": 264.9459,
        "meta_arg_of_pericenter": 173.0082,
        "meta_mean_anomaly": 187.6669,
        "meta_ephemeris_type": 0,
        "meta_classification_type": "U",
        "meta_norad_cat_id": 32326,
        "meta_element_set_no": 999,
        "meta_rev_at_epoch": 63009,
        "meta_bstar": 0.00044957354,
        "meta_mean_motion_dot": 6.22e-06,
        "meta_mean_motion_ddot": 0,
        "tle_line1": "1 32326U 99025CXT 25334.10599513  .00000622  00000+0  44957-3 0  9992",
        "tle_line2": "2 32326  98.4860 264.9459 0385626 173.0082 187.6669 13.69261307630092"
      },
      "geometry": {
        "type": "Point",
        "coordinates": [
          89.2941356359612,
          3.3961405094268957
        ]
      }
    },
    {
      "type": "Feature",
      "properties": {
        "norad_id": 32331,
        "name": "FENGYUN 1C DEB",
        "group": "fengyun-1c-debris",
        "lat": 74.3852283256414,
        "lon": 160.33855183849096,
        "alt_km": 644.373734422571,
        "timestamp": "2025-12-04T10:51:50.391650+00:00",
        "meta_object_name": "FENGYUN 1C DEB",
        "meta_object_id": "1999-025CXY",
        "meta_epoch": "2025-11-11T08:35:02.141088",
        "meta_mean_motion": 14.68670701,
        "meta_eccentricity": 0.0013407,
        "meta_inclination": 99.1837,
        "meta_ra_of_asc_node": 279.0061,
        "meta_arg_of_pericenter": 226.0291,
        "meta_mean_anomaly": 133.9806,
        "meta_ephemeris_type": 0,
        "meta_classification_type": "U",
        "meta_norad_cat_id": 32331,
        "meta_element_set_no": 999,
        "meta_rev_at_epoch": 60157,
        "meta_bstar": 0.0092524,
        "meta_mean_motion_dot": 0.0005428,
        "meta_mean_motion_ddot": 0,
        "tle_line1": "1 32331U 99025CXY 25315.35766367  .00054280  00000+0  92524-2 0  9998",
        "tle_line2": "2 32331  99.1837 279.0061 0013407 226.0291 133.9806 14.68670701601572"
      },
      "geometry": {
        "type": "Point",
        "coordinates": [
          160.33855183849096,
          74.3852283256414
        ]
      }
    },
    {
      "type": "Feature",
      "properties": {
        "norad_id": 32332,
        "name": "FENGYUN 1C DEB",
        "group": "fengyun-1c-debris",
        "lat": 21.52829641260116,
        "lon": -143.81868564184978,
        "alt_km": 1111.0902481531766,
        "timestamp": "2025-12-04T10:51:50.391660+00:00",
        "meta_object_name": "FENGYUN 1C DEB",
        "meta_object_id": "1999-025CXZ",
        "meta_epoch": "2025-11-29T21:49:05.913408",
        "meta_mean_motion": 13.97030722,
        "meta_eccentricity": 0.02850137,
        "meta_inclination": 99.1337,
        "meta_ra_of_asc_node": 28.0232,
        "meta_arg_of_pericenter": 348.1334,
        "meta_mean_anomaly": 11.3206,
        "meta_ephemeris_type": 0,
        "meta_classification_type": "U",
        "meta_norad_cat_id": 32332,
        "meta_element_set_no": 999,
        "meta_rev_at_epoch": 92857,
        "meta_bstar": 0.0013397754,
        "meta_mean_motion_dot": 2.591e-05,
        "meta_mean_motion_ddot": 0,
        "tle_line1": "1 32332U 99025CXZ 25333.90909622  .00002591  00000+0  13398-2 0  9993",
        "tle_line2": "2 32332  99.1337  28.0232 0285013 348.1334  11.3206 13.97030722928577"
      },
      "geometry": {
        "type": "Point",
        "coordinates": [
          -143.81868564184978,
          21.52829641260116
        ]
      }
    },
    {
      "type": "Feature",
      "properties": {
        "norad_id": 32334,
        "name": "FENGYUN 1C DEB",
        "group": "fengyun-1c-debris",
        "lat": -34.295121885238075,
        "lon": -153.63765831988013,
        "alt_km": 893.6663113580616,
        "timestamp": "2025-12-04T10:51:50.391692+00:00",
        "meta_object_name": "FENGYUN 1C DEB",
        "meta_object_id": "1999-025CYB",
        "meta_epoch": "2025-12-02T03:00:46.825344",
        "meta_mean_motion": 14.01624263,
        "meta_eccentricity": 0.00664079,
        "meta_inclination": 99.2542,
        "meta_ra_of_asc_node": 30.3872,
        "meta_arg_of_pericenter": 310.7393,
        "meta_mean_anomaly": 48.8018,
        "meta_ephemeris_type": 0,
        "meta_classification_type": "U",
        "meta_norad_cat_id": 32334,
        "meta_element_set_no": 999,
        "meta_rev_at_epoch": 93791,
        "meta_bstar": 0.00038671814,
        "meta_mean_motion_dot": 5.5e-06,
        "meta_mean_motion_ddot": 0,
        "tle_line1": "1 32334U 99025CYB 25336.12554196  .00000550  00000+0  38672-3 0  9990",
        "tle_line2": "2 32334  99.2542  30.3872 0066407 310.7393  48.8018 14.01624263937917"
      },
      "geometry": {
        "type": "Point",
        "coordinates": [
          -153.63765831988013,
          -34.295121885238075
        ]
      }
    },
    {
      "type": "Feature",
      "properties": {
        "norad_id": 32340,
        "name": "FENGYUN 1C DEB",
        "group": "fengyun-1c-debris",
        "lat": 59.52364972178332,
        "lon": 178.95171928877983,
        "alt_km": 664.8855601386385,
        "timestamp": "2025-12-04T10:51:50.391703+00:00",
        "meta_object_name": "FENGYUN 1C DEB",
        "meta_object_id": "1999-025CYH",
        "meta_epoch": "2025-12-03T11:31:05.163168",
        "meta_mean_motion": 14.74095933,
        "meta_eccentricity": 0.00348923,
        "meta_inclination": 98.9809,
        "meta_ra_of_asc_node": 342.2859,
        "meta_arg_of_pericenter": 323.7129,
        "meta_mean_anomaly": 36.171,
        "meta_ephemeris_type": 0,
        "meta_classification_type": "U",
        "meta_norad_cat_id": 32340,
        "meta_element_set_no": 999,
        "meta_rev_at_epoch": 97060,
        "meta_bstar": 0.0034692662,
        "meta_mean_motion_dot": 0.00023088,
        "meta_mean_motion_ddot": 0,
        "tle_line1": "1 32340U 99025CYH 25337.47992087  .00023088  00000+0  34693-2 0  9990",
        "tle_line2": "2 32340  98.9809 342.2859 0034892 323.7129  36.1710 14.74095933970608"
      },
      "geometry": {
        "type": "Point",
        "coordinates": [
          178.95171928877983,
          59.52364972178332
        ]
      }
    },
    {
      "type": "Feature",
      "properties": {
        "norad_id": 32342,
        "name": "FENGYUN 1C DEB",
        "group": "fengyun-1c-debris",
        "lat": -41.25607957751773,
        "lon": 159.62327885414743,
        "alt_km": 859.4375926850635,
        "timestamp": "2025-12-04T10:51:50.391713+00:00",
        "meta_object_name": "FENGYUN 1C DEB",
        "meta_object_id": "1999-025CYK",
        "meta_epoch": "2025-12-03T23:52:51.561408",
        "meta_mean_motion": 14.13393287,
        "meta_eccentricity": 0.0007967,
        "meta_inclination": 98.6705,
        "meta_ra_of_asc_node": 346.8718,
        "meta_arg_of_pericenter": 16.2147,
        "meta_mean_anomaly": 38.3823,
        "meta_ephemeris_type": 0,
        "meta_classification_type": "U",
        "meta_norad_cat_id": 32342,
        "meta_element_set_no": 999,
        "meta_rev_at_epoch": 93594,
        "meta_bstar": 0.00018219,
        "meta_mean_motion_dot": 3e-06,
        "meta_mean_motion_ddot": 0,
        "tle_line1": "1 32342U 99025CYK 25337.99504122  .00000300  00000+0  18219-3 0  9997",
        "tle_line2": "2 32342  98.6705 346.8718 0007967  16.2147  38.3823 14.13393287935946"
      },
      "geometry": {
        "type": "Point",
        "coordinates": [
          159.62327885414743,
          -41.25607957751773
        ]
      }
    },
    {
      "type": "Feature",
      "properties": {
        "norad_id": 32343,
        "name": "FENGYUN 1C DEB",
        "group": "fengyun-1c-debris",
        "lat": -26.866119327581874,
        "lon": 141.0458126087931,
        "alt_km": 769.0927866549346,
        "timestamp": "2025-12-04T10:51:50.391723+00:00",
        "meta_object_name": "FENGYUN 1C DEB",
        "meta_object_id": "1999-025CYL",
        "meta_epoch": "2025-11-23T04:58:45.910848",
        "meta_mean_motion": 14.1981282,
        "meta_eccentricity": 0.01511129,
        "meta_inclination": 98.6065,
        "meta_ra_of_asc_node": 314.5087,
        "meta_arg_of_pericenter": 183.896,
        "meta_mean_anomaly": 176.1052,
        "meta_ephemeris_type": 0,
        "meta_classification_type": "U",
        "meta_norad_cat_id": 32343,
        "meta_element_set_no": 999,
        "meta_rev_at_epoch": 64436,
        "meta_bstar": 0.00029765257,
        "meta_mean_motion_dot": 6.65e-06,
        "meta_mean_motion_ddot": 0,
        "tle_line1": "1 32343U 99025CYL 25327.20747582  .00000665  00000+0  29765-3 0  9992",
        "tle_line2": "2 32343  98.6065 314.5087 0151112 183.8960 176.1052 14.19812820644366"
      },
      "geometry": {
        "type": "Point",
        "coordinates": [
          141.0458126087931,
          -26.866119327581874
        ]
      }
    }
  ]
}